[{"OBJECT_NAME":"OSCAR 7 (AO-7)","OBJECT_ID":"1974-089B","EPOCH":"2024-10-27T11:24:08.044704","MEAN_MOTION":12.53681533,"ECCENTRICITY":0.001207,"INCLINATION":101.9888,"RA_OF_ASC_NODE":297.4083,"ARG_OF_PERICENTER":190.741,"MEAN_ANOMALY":324.0528,"EPHEMERIS_TYPE":0,"CLASSIFICATION_TYPE":"U","NORAD_CAT_ID":7530,"ELEMENT_SET_NO":999,"REV_AT_EPOCH":28585,"BSTAR":0.00025342,"MEAN_MOTION_DOT":-6.0e-8,"MEAN_MOTION_DDOT":0},{"OBJECT_NAME":"PHASE 3B (AO-10)","OBJECT_ID":"1983-058B","EPOCH":"2024-10-26T00:51:42.762240","MEAN_MOTION":2.05869021,"ECCENTRICITY":0.6036299,"INCLINATION":27.3401,"RA_OF_ASC_NODE":318.4903,"ARG_OF_PERICENTER":311.8133,"MEAN_ANOMALY":10.3495,"EPHEMERIS_TYPE":0,"CLASSIFICATION_TYPE":"U","NORAD_CAT_ID":14129,"ELEMENT_SET_NO":999,"REV_AT_EPOCH":28315,"BSTAR":0,"MEAN_MOTION_DOT":-2.33e-6,"MEAN_MOTION_DDOT":0},{"OBJECT_NAME":"UOSAT 2 (UO-11)","OBJECT_ID":"1984-021B","EPOCH":"2024-10-26T21:31:04.530144","MEAN_MOTION":14.87787251,"ECCENTRICITY":0.0008441,"INCLINATION":97.7227,"RA_OF_ASC_NODE":266.4168,"ARG_OF_PERICENTER":15.0466,"MEAN_ANOMALY":345.1001,"EPHEMERIS_TYPE":0,"CLASSIFICATION_TYPE":"U","NORAD_CAT_ID":14781,"ELEMENT_SET_NO":999,"REV_AT_EPOCH":18906,"BSTAR":0.00057502,"MEAN_MOTION_DOT":5.201e-5,"MEAN_MOTION_DDOT":0},{"OBJECT_NAME":"LUSAT (LO-19)","OBJECT_ID":"1990-005G","EPOCH":"2024-10-26T22:08:48.203232","MEAN_MOTION":14.33722475,"ECCENTRICITY":0.0012026,"INCLINATION":98.8934,"RA_OF_ASC_NODE":294.7397,"ARG_OF_PERICENTER":154.8109,"MEAN_ANOMALY":205.3663,"EPHEMERIS_TYPE":0,"CLASSIFICATION_TYPE":"U","NORAD_CAT_ID":20442,"ELEMENT_SET_NO":999,"REV_AT_EPOCH":81665,"BSTAR":0.00025623,"MEAN_MOTION_DOT":6.65e-6,"MEAN_MOTION_DDOT":0},{"OBJECT_NAME":"EYESAT A (AO-27)","OBJECT_ID":"1993-061C","EPOCH":"2024-10-26T21:21:07.063776","MEAN_MOTION":14.30627975,"ECCENTRICITY":0.000928,"INCLINATION":98.7722,"RA_OF_ASC_NODE":354.9406,"ARG_OF_PERICENTER":58.0619,"MEAN_ANOMALY":302.1464,"EPHEMERIS_TYPE":0,"CLASSIFICATION_TYPE":"U","NORAD_CAT_ID":22825,"ELEMENT_SET_NO":999,"REV_AT_EPOCH":62144,"BSTAR":0.00019372,"MEAN_MOTION_DOT":4.61e-6,"MEAN_MOTION_DDOT":0},{"OBJECT_NAME":"ITAMSAT (IO-26)","OBJECT_ID":"1993-061D","EPOCH":"2024-10-27T09:24:21.181248","MEAN_MOTION":14.31024423,"ECCENTRICITY":0.0009595,"INCLINATION":98.767,"RA_OF_ASC_NODE":355.3158,"ARG_OF_PERICENTER":42.3984,"MEAN_ANOMALY":317.7938,"EPHEMERIS_TYPE":0,"CLASSIFICATION_TYPE":"U","NORAD_CAT_ID":22826,"ELEMENT_SET_NO":999,"REV_AT_EPOCH":62205,"BSTAR":0.00024865,"MEAN_MOTION_DOT":6.09e-6,"MEAN_MOTION_DDOT":0},{"OBJECT_NAME":"RADIO ROSTO (RS-15)","OBJECT_ID":"1994-085A","EPOCH":"2024-10-26T19:38:01.161600","MEAN_MOTION":11.27579453,"ECCENTRICITY":0.0146938,"INCLINATION":64.816,"RA_OF_ASC_NODE":190.8989,"ARG_OF_PERICENTER":118.6049,"MEAN_ANOMALY":242.9746,"EPHEMERIS_TYPE":0,"CLASSIFICATION_TYPE":"U","NORAD_CAT_ID":23439,"ELEMENT_SET_NO":999,"REV_AT_EPOCH":22843,"BSTAR":0.00016792,"MEAN_MOTION_DOT":-3.7e-7,"MEAN_MOTION_DDOT":0},{"OBJECT_NAME":"JAS-2 (FO-29)","OBJECT_ID":"1996-046B","EPOCH":"2024-10-27T04:08:21.614496","MEAN_MOTION":13.53218742,"ECCENTRICITY":0.0349527,"INCLINATION":98.5832,"RA_OF_ASC_NODE":218.5338,"ARG_OF_PERICENTER":206.2503,"MEAN_ANOMALY":152.0549,"EPHEMERIS_TYPE":0,"CLASSIFICATION_TYPE":"U","NORAD_CAT_ID":24278,"ELEMENT_SET_NO":999,"REV_AT_EPOCH":39253,"BSTAR":8.2342e-5,"MEAN_MOTION_DOT":4.5e-7,"MEAN_MOTION_DDOT":0},{"OBJECT_NAME":"TECHSAT 1B (GO-32)","OBJECT_ID":"1998-043D","EPOCH":"2024-10-27T04:24:57.892896","MEAN_MOTION":14.24165714,"ECCENTRICITY":0.0002121,"INCLINATION":98.941,"RA_OF_ASC_NODE":269.9972,"ARG_OF_PERICENTER":114.9707,"MEAN_ANOMALY":245.1691,"EPHEMERIS_TYPE":0,"CLASSIFICATION_TYPE":"U","NORAD_CAT_ID":25397,"ELEMENT_SET_NO":999,"REV_AT_EPOCH":36642,"BSTAR":0.00024938,"MEAN_MOTION_DOT":5.28e-6,"MEAN_MOTION_DDOT":0},{"OBJECT_NAME":"ISS (ZARYA)","OBJECT_ID":"1998-067A","EPOCH":"2024-10-27T12:57:31.569408","MEAN_MOTION":15.50549,"ECCENTRICITY":0.0009255,"INCLINATION":51.6396,"RA_OF_ASC_NODE":19.8087,"ARG_OF_PERICENTER":109.0656,"MEAN_ANOMALY":358.826,"EPHEMERIS_TYPE":0,"CLASSIFICATION_TYPE":"U","NORAD_CAT_ID":25544,"ELEMENT_SET_NO":999,"REV_AT_EPOCH":47907,"BSTAR":0.00074251,"MEAN_MOTION_DOT":0.00043048,"MEAN_MOTION_DDOT":0},{"OBJECT_NAME":"PCSAT (NO-44)","OBJECT_ID":"2001-043C","EPOCH":"2024-10-27T03:09:41.685408","MEAN_MOTION":14.31454845,"ECCENTRICITY":0.0007537,"INCLINATION":67.0522,"RA_OF_ASC_NODE":350.6313,"ARG_OF_PERICENTER":264.0452,"MEAN_ANOMALY":95.9791,"EPHEMERIS_TYPE":0,"CLASSIFICATION_TYPE":"U","NORAD_CAT_ID":26931,"ELEMENT_SET_NO":999,"REV_AT_EPOCH":20499,"BSTAR":0.00030016,"MEAN_MOTION_DOT":7.15e-6,"MEAN_MOTION_DDOT":0},{"OBJECT_NAME":"SAUDISAT 1C (SO-50)","OBJECT_ID":"2002-058C","EPOCH":"2024-10-27T00:16:45.829920","MEAN_MOTION":14.80082109,"ECCENTRICITY":0.0029555,"INCLINATION":64.5545,"RA_OF_ASC_NODE":176.058,"ARG_OF_PERICENTER":42.6517,"MEAN_ANOMALY":317.6875,"EPHEMERIS_TYPE":0,"CLASSIFICATION_TYPE":"U","NORAD_CAT_ID":27607,"ELEMENT_SET_NO":999,"REV_AT_EPOCH":17603,"BSTAR":0.00064173,"MEAN_MOTION_DOT":4.776e-5,"MEAN_MOTION_DDOT":0},{"OBJECT_NAME":"CUTE-1 (CO-55)","OBJECT_ID":"2003-031E","EPOCH":"2024-10-26T23:04:51.061440","MEAN_MOTION":14.23574322,"ECCENTRICITY":0.0010698,"INCLINATION":98.6794,"RA_OF_ASC_NODE":306.1968,"ARG_OF_PERICENTER":118.824,"MEAN_ANOMALY":241.4014,"EPHEMERIS_TYPE":0,"CLASSIFICATION_TYPE":"U","NORAD_CAT_ID":27844,"ELEMENT_SET_NO":999,"REV_AT_EPOCH":10656,"BSTAR":0.00053943,"MEAN_MOTION_DOT":1.185e-5,"MEAN_MOTION_DDOT":0},{"OBJECT_NAME":"CUBESAT XI-IV (CO-57)","OBJECT_ID":"2003-031J","EPOCH":"2024-10-26T22:47:10.427136","MEAN_MOTION":14.2297161,"ECCENTRICITY":0.0010369,"INCLINATION":98.6824,"RA_OF_ASC_NODE":306.3508,"ARG_OF_PERICENTER":133.9345,"MEAN_ANOMALY":226.2691,"EPHEMERIS_TYPE":0,"CLASSIFICATION_TYPE":"U","NORAD_CAT_ID":27848,"ELEMENT_SET_NO":999,"REV_AT_EPOCH":10632,"BSTAR":0.00047215,"MEAN_MOTION_DOT":1.02e-5,"MEAN_MOTION_DDOT":0},{"OBJECT_NAME":"MOZHAYETS 4 (RS-22)","OBJECT_ID":"2003-042A","EPOCH":"2024-10-27T12:09:04.121280","MEAN_MOTION":14.70976142,"ECCENTRICITY":0.0011759,"INCLINATION":98.3057,"RA_OF_ASC_NODE":100.0217,"ARG_OF_PERICENTER":7.7006,"MEAN_ANOMALY":84.9693,"EPHEMERIS_TYPE":0,"CLASSIFICATION_TYPE":"U","NORAD_CAT_ID":27939,"ELEMENT_SET_NO":999,"REV_AT_EPOCH":12772,"BSTAR":0.0008786,"MEAN_MOTION_DOT":5.343e-5,"MEAN_MOTION_DDOT":0},{"OBJECT_NAME":"CUBESAT XI-V","OBJECT_ID":"2005-043F","EPOCH":"2024-10-27T07:25:28.767936","MEAN_MOTION":14.69053693,"ECCENTRICITY":0.0014312,"INCLINATION":98.2196,"RA_OF_ASC_NODE":77.5806,"ARG_OF_PERICENTER":301.5965,"MEAN_ANOMALY":58.3843,"EPHEMERIS_TYPE":0,"CLASSIFICATION_TYPE":"U","NORAD_CAT_ID":28895,"ELEMENT_SET_NO":999,"REV_AT_EPOCH":1407,"BSTAR":0.0013065,"MEAN_MOTION_DOT":7.635e-5,"MEAN_MOTION_DDOT":0}]
