OSCAR 7 (AO-7)          
1 07530U 74089B   24301.47509311 -.00000006  00000+0  25342-3 0  9998
2 07530 101.9888 297.4083 0012070 190.7410 324.0528 12.53681533285856
PHASE 3B (AO-10)        
1 14129U 83058B   24300.03591160 -.00000233  00000+0  00000+0 0  9992
2 14129  27.3401 318.4903 6036299 311.8133  10.3495  2.05869021283153
UOSAT 2 (UO-11)         
1 14781U 84021B   24300.89658021  .00005201  00000+0  57502-3 0  9993
2 14781  97.7227 266.4168 0008441  15.0466 345.1001 14.87787251189067
LUSAT (LO-19)           
1 20442U 90005G   24300.92278013  .00000665  00000+0  25623-3 0  9994
2 20442  98.8934 294.7397 0012026 154.8109 205.3663 14.33722475816654
EYESAT A (AO-27)        
1 22825U 93061C   24300.88966509  .00000461  00000+0  19372-3 0  9993
2 22825  98.7722 354.9406 0009280  58.0619 302.1464 14.30627975621446
ITAMSAT (IO-26)         
1 22826U 93061D   24301.39191182  .00000609  00000+0  24865-3 0  9995
2 22826  98.7670 355.3158 0009595  42.3984 317.7938 14.31024423622054
RADIO ROSTO (RS-15)     
1 23439U 94085A   24300.81806900 -.00000037  00000+0  16792-3 0  9996
2 23439  64.8160 190.8989 0146938 118.6049 242.9746 11.27579453228439
JAS-2 (FO-29)           
1 24278U 96046B   24301.17247239  .00000045  00000+0  82342-4 0  9994
2 24278  98.5832 218.5338 0349527 206.2503 152.0549 13.53218742392532
TECHSAT 1B (GO-32)      
1 25397U 98043D   24301.18400339  .00000528  00000+0  24938-3 0  9991
2 25397  98.9410 269.9972 0002121 114.9707 245.1691 14.24165714366422
ISS (ZARYA)             
1 25544U 98067A   24301.53994872  .00043048  00000+0  74251-3 0  9997
2 25544  51.6396  19.8087 0009255 109.0656 358.8260 15.50549000479071
PCSAT (NO-44)           
1 26931U 01043C   24301.13173247  .00000715  00000+0  30016-3 0  9992
2 26931  67.0522 350.6313 0007537 264.0452  95.9791 14.31454845204994
SAUDISAT 1C (SO-50)     
1 27607U 02058C   24301.01164155  .00004776  00000+0  64173-3 0  9997
2 27607  64.5545 176.0580 0029555  42.6517 317.6875 14.80082109176038
CUTE-1 (CO-55)          
1 27844U 03031E   24300.96170210  .00001185  00000+0  53943-3 0  9998
2 27844  98.6794 306.1968 0010698 118.8240 241.4014 14.23574322106568
CUBESAT XI-IV (CO-57)   
1 27848U 03031J   24300.94942624  .00001020  00000+0  47215-3 0  9999
2 27848  98.6824 306.3508 0010369 133.9345 226.2691 14.22971610106323
MOZHAYETS 4 (RS-22)     
1 27939U 03042A   24301.50629770  .00005343  00000+0  87860-3 0  9991
2 27939  98.3057 100.0217 0011759   7.7006  84.9693 14.70976142127727
CUBESAT XI-V            
1 28895U 05043F   24301.30936074  .00007635  00000+0  13065-2 0  9993
2 28895  98.2196  77.5806 0014312 301.5965  58.3843 14.69053693 14071
